[{"OBJECT_NAME":"IRIDIUM 152","OBJECT_ID":"2018-047D","EPOCH":"2026-04-26T23:04:34.243680","MEAN_MOTION":14.3421779,"ECCENTRICITY":0.00022124,"INCLINATION":86.3919,"RA_OF_ASC_NODE":109.7546,"ARG_OF_PERICENTER":91.931,"MEAN_ANOMALY":268.2139,"EPHEMERIS_TYPE":0,"CLASSIFICATION_TYPE":"U","NORAD_CAT_ID":43479,"ELEMENT_SET_NO":999,"REV_AT_EPOCH":41514,"BSTAR":1.2450546e-5,"MEAN_MOTION_DOT":5.5e-7,"MEAN_MOTION_DDOT":0},{"OBJECT_NAME":"IRIDIUM 147","OBJECT_ID":"2018-047E","EPOCH":"2026-04-26T23:13:42.246912","MEAN_MOTION":14.34217633,"ECCENTRICITY":0.00023463,"INCLINATION":86.3921,"RA_OF_ASC_NODE":109.7563,"ARG_OF_PERICENTER":86.9168,"MEAN_ANOMALY":273.2296,"EPHEMERIS_TYPE":0,"CLASSIFICATION_TYPE":"U","NORAD_CAT_ID":43480,"ELEMENT_SET_NO":999,"REV_AT_EPOCH":41514,"BSTAR":8.0805e-6,"MEAN_MOTION_DOT":4.2e-7,"MEAN_MOTION_DDOT":0},{"OBJECT_NAME":"IRIDIUM 110","OBJECT_ID":"2018-047F","EPOCH":"2026-04-26T11:39:34.081632","MEAN_MOTION":14.34217608,"ECCENTRICITY":0.00018418,"INCLINATION":86.3928,"RA_OF_ASC_NODE":110.0485,"ARG_OF_PERICENTER":95.2777,"MEAN_ANOMALY":264.8629,"EPHEMERIS_TYPE":0,"CLASSIFICATION_TYPE":"U","NORAD_CAT_ID":43481,"ELEMENT_SET_NO":999,"REV_AT_EPOCH":41506,"BSTAR":-2.0922e-6,"MEAN_MOTION_DOT":1.4e-7,"MEAN_MOTION_DDOT":0},{"OBJECT_NAME":"IRIDIUM 162","OBJECT_ID":"2018-047G","EPOCH":"2026-04-26T17:15:39.604032","MEAN_MOTION":14.4328155,"ECCENTRICITY":0.00024055,"INCLINATION":86.4444,"RA_OF_ASC_NODE":109.887,"ARG_OF_PERICENTER":91.7683,"MEAN_ANOMALY":268.3794,"EPHEMERIS_TYPE":0,"CLASSIFICATION_TYPE":"U","NORAD_CAT_ID":43482,"ELEMENT_SET_NO":999,"REV_AT_EPOCH":41770,"BSTAR":5.057745e-5,"MEAN_MOTION_DOT":1.9e-6,"MEAN_MOTION_DDOT":0},{"OBJECT_NAME":"IRIDIUM 160","OBJECT_ID":"2018-061A","EPOCH":"2026-04-26T20:24:22.482144","MEAN_MOTION":14.34217296,"ECCENTRICITY":0.00021255,"INCLINATION":86.394,"RA_OF_ASC_NODE":78.2592,"ARG_OF_PERICENTER":85.9938,"MEAN_ANOMALY":274.1501,"EPHEMERIS_TYPE":0,"CLASSIFICATION_TYPE":"U","NORAD_CAT_ID":43569,"ELEMENT_SET_NO":999,"REV_AT_EPOCH":40601,"BSTAR":8.015679e-6,"MEAN_MOTION_DOT":4.2e-7,"MEAN_MOTION_DDOT":0},{"OBJECT_NAME":"IRIDIUM 166","OBJECT_ID":"2018-061B","EPOCH":"2026-04-26T22:41:24.160992","MEAN_MOTION":14.34218312,"ECCENTRICITY":0.00023616,"INCLINATION":86.3939,"RA_OF_ASC_NODE":78.1705,"ARG_OF_PERICENTER":84.0666,"MEAN_ANOMALY":276.0799,"EPHEMERIS_TYPE":0,"CLASSIFICATION_TYPE":"U","NORAD_CAT_ID":43570,"ELEMENT_SET_NO":999,"REV_AT_EPOCH":40605,"BSTAR":8.7367751e-5,"MEAN_MOTION_DOT":2.64e-6,"MEAN_MOTION_DDOT":0},{"OBJECT_NAME":"IRIDIUM 158","OBJECT_ID":"2018-061C","EPOCH":"2026-04-26T20:15:14.480640","MEAN_MOTION":14.34217478,"ECCENTRICITY":0.0002172,"INCLINATION":86.3941,"RA_OF_ASC_NODE":78.2232,"ARG_OF_PERICENTER":89.5699,"MEAN_ANOMALY":270.5746,"EPHEMERIS_TYPE":0,"CLASSIFICATION_TYPE":"U","NORAD_CAT_ID":43571,"ELEMENT_SET_NO":999,"REV_AT_EPOCH":40600,"BSTAR":-4.358729e-6,"MEAN_MOTION_DOT":8.0e-8,"MEAN_MOTION_DDOT":0},{"OBJECT_NAME":"IRIDIUM 165","OBJECT_ID":"2018-061D","EPOCH":"2026-04-26T22:32:14.498016","MEAN_MOTION":14.34217638,"ECCENTRICITY":0.00023516,"INCLINATION":86.394,"RA_OF_ASC_NODE":78.2285,"ARG_OF_PERICENTER":83.9133,"MEAN_ANOMALY":276.233,"EPHEMERIS_TYPE":0,"CLASSIFICATION_TYPE":"U","NORAD_CAT_ID":43572,"ELEMENT_SET_NO":999,"REV_AT_EPOCH":40604,"BSTAR":5.921714e-6,"MEAN_MOTION_DOT":3.6e-7,"MEAN_MOTION_DDOT":0},{"OBJECT_NAME":"IRIDIUM 155","OBJECT_ID":"2018-061E","EPOCH":"2026-04-26T21:37:26.499360","MEAN_MOTION":14.34217676,"ECCENTRICITY":0.00023968,"INCLINATION":86.3936,"RA_OF_ASC_NODE":78.1159,"ARG_OF_PERICENTER":87.8472,"MEAN_ANOMALY":272.2999,"EPHEMERIS_TYPE":0,"CLASSIFICATION_TYPE":"U","NORAD_CAT_ID":43573,"ELEMENT_SET_NO":999,"REV_AT_EPOCH":40600,"BSTAR":1.5420108e-5,"MEAN_MOTION_DOT":6.3e-7,"MEAN_MOTION_DDOT":0},{"OBJECT_NAME":"IRIDIUM 154","OBJECT_ID":"2018-061F","EPOCH":"2026-04-26T22:50:30.476832","MEAN_MOTION":14.34217756,"ECCENTRICITY":0.000232,"INCLINATION":86.394,"RA_OF_ASC_NODE":78.2259,"ARG_OF_PERICENTER":82.9103,"MEAN_ANOMALY":277.2356,"EPHEMERIS_TYPE":0,"CLASSIFICATION_TYPE":"U","NORAD_CAT_ID":43574,"ELEMENT_SET_NO":999,"REV_AT_EPOCH":40606,"BSTAR":2.3584145e-5,"MEAN_MOTION_DOT":8.6e-7,"MEAN_MOTION_DDOT":0},{"OBJECT_NAME":"IRIDIUM 163","OBJECT_ID":"2018-061G","EPOCH":"2026-04-26T22:23:06.426528","MEAN_MOTION":14.34218795,"ECCENTRICITY":0.00022415,"INCLINATION":86.3938,"RA_OF_ASC_NODE":78.1507,"ARG_OF_PERICENTER":89.3317,"MEAN_ANOMALY":270.8136,"EPHEMERIS_TYPE":0,"CLASSIFICATION_TYPE":"U","NORAD_CAT_ID":43575,"ELEMENT_SET_NO":999,"REV_AT_EPOCH":40603,"BSTAR":7.3194592e-5,"MEAN_MOTION_DOT":2.25e-6,"MEAN_MOTION_DDOT":0},{"OBJECT_NAME":"IRIDIUM 156","OBJECT_ID":"2018-061H","EPOCH":"2026-04-26T20:06:06.531840","MEAN_MOTION":14.34217623,"ECCENTRICITY":0.00024259,"INCLINATION":86.3938,"RA_OF_ASC_NODE":78.1978,"ARG_OF_PERICENTER":86.9623,"MEAN_ANOMALY":273.1851,"EPHEMERIS_TYPE":0,"CLASSIFICATION_TYPE":"U","NORAD_CAT_ID":43576,"ELEMENT_SET_NO":999,"REV_AT_EPOCH":40601,"BSTAR":8.530294e-6,"MEAN_MOTION_DOT":4.4e-7,"MEAN_MOTION_DDOT":0},{"OBJECT_NAME":"IRIDIUM 164","OBJECT_ID":"2018-061J","EPOCH":"2026-04-26T22:59:38.460192","MEAN_MOTION":14.34217012,"ECCENTRICITY":0.00022505,"INCLINATION":86.3939,"RA_OF_ASC_NODE":78.1868,"ARG_OF_PERICENTER":81.5743,"MEAN_ANOMALY":278.5708,"EPHEMERIS_TYPE":0,"CLASSIFICATION_TYPE":"U","NORAD_CAT_ID":43577,"ELEMENT_SET_NO":999,"REV_AT_EPOCH":40607,"BSTAR":7.5584521e-5,"MEAN_MOTION_DOT":2.31e-6,"MEAN_MOTION_DDOT":0},{"OBJECT_NAME":"IRIDIUM 159","OBJECT_ID":"2018-061K","EPOCH":"2026-04-26T20:33:30.445632","MEAN_MOTION":14.342176,"ECCENTRICITY":0.00020503,"INCLINATION":86.3939,"RA_OF_ASC_NODE":78.1675,"ARG_OF_PERICENTER":87.3144,"MEAN_ANOMALY":272.8286,"EPHEMERIS_TYPE":0,"CLASSIFICATION_TYPE":"U","NORAD_CAT_ID":43578,"ELEMENT_SET_NO":999,"REV_AT_EPOCH":40602,"BSTAR":-1.3257135e-5,"MEAN_MOTION_DOT":-1.7e-7,"MEAN_MOTION_DDOT":0},{"OBJECT_NAME":"IRIDIUM 180","OBJECT_ID":"2019-002A","EPOCH":"2026-04-26T18:52:18.856704","MEAN_MOTION":14.34218295,"ECCENTRICITY":0.00020803,"INCLINATION":86.4015,"RA_OF_ASC_NODE":15.078,"ARG_OF_PERICENTER":85.6131,"MEAN_ANOMALY":274.5303,"EPHEMERIS_TYPE":0,"CLASSIFICATION_TYPE":"U","NORAD_CAT_ID":43922,"ELEMENT_SET_NO":999,"REV_AT_EPOCH":38162,"BSTAR":5.0456231e-5,"MEAN_MOTION_DOT":1.61e-6,"MEAN_MOTION_DDOT":0},{"OBJECT_NAME":"IRIDIUM 176","OBJECT_ID":"2019-002B","EPOCH":"2026-04-26T18:36:34.002720","MEAN_MOTION":14.72259117,"ECCENTRICITY":0.0002485,"INCLINATION":86.6134,"RA_OF_ASC_NODE":15.0335,"ARG_OF_PERICENTER":82.1652,"MEAN_ANOMALY":277.9848,"EPHEMERIS_TYPE":0,"CLASSIFICATION_TYPE":"U","NORAD_CAT_ID":43923,"ELEMENT_SET_NO":999,"REV_AT_EPOCH":39168,"BSTAR":0.00013229006,"MEAN_MOTION_DOT":8.59e-6,"MEAN_MOTION_DDOT":0},{"OBJECT_NAME":"IRIDIUM 168","OBJECT_ID":"2019-002C","EPOCH":"2026-04-26T18:43:11.978400","MEAN_MOTION":14.34220407,"ECCENTRICITY":0.00021538,"INCLINATION":86.4017,"RA_OF_ASC_NODE":15.1565,"ARG_OF_PERICENTER":84.5356,"MEAN_ANOMALY":275.6085,"EPHEMERIS_TYPE":0,"CLASSIFICATION_TYPE":"U","NORAD_CAT_ID":43924,"ELEMENT_SET_NO":999,"REV_AT_EPOCH":38160,"BSTAR":8.5660497e-5,"MEAN_MOTION_DOT":2.6e-6,"MEAN_MOTION_DDOT":0}]
