IRIDIUM 152             
1 43479U 18047D   26116.96150745  .00000055  00000+0  12451-4 0  9996
2 43479  86.3919 109.7546 0002212  91.9310 268.2139 14.34217790415141
IRIDIUM 147             
1 43480U 18047E   26116.96785008  .00000042  00000+0  80805-5 0  9999
2 43480  86.3921 109.7563 0002346  86.9168 273.2296 14.34217633415144
IRIDIUM 110             
1 43481U 18047F   26116.48581113  .00000014  00000+0 -20922-5 0  9992
2 43481  86.3928 110.0485 0001841  95.2777 264.8629 14.34217608415067
IRIDIUM 162             
1 43482U 18047G   26116.71920838  .00000190  00000+0  50577-4 0  9992
2 43482  86.4444 109.8870 0002405  91.7683 268.3794 14.43281550417702
IRIDIUM 160             
1 43569U 18061A   26116.85026021  .00000042  00000+0  80157-5 0  9994
2 43569  86.3940  78.2592 0002125  85.9938 274.1501 14.34217296406014
IRIDIUM 166             
1 43570U 18061B   26116.94541853  .00000264  00000+0  87368-4 0  9997
2 43570  86.3939  78.1705 0002361  84.0666 276.0799 14.34218312406053
IRIDIUM 158             
1 43571U 18061C   26116.84391760  .00000008  00000+0 -43587-5 0  9990
2 43571  86.3941  78.2232 0002172  89.5699 270.5746 14.34217478406007
IRIDIUM 165             
1 43572U 18061D   26116.93905669  .00000036  00000+0  59217-5 0  9997
2 43572  86.3940  78.2285 0002351  83.9133 276.2330 14.34217638406049
IRIDIUM 155             
1 43573U 18061E   26116.90100115  .00000063  00000+0  15420-4 0  9995
2 43573  86.3936  78.1159 0002396  87.8472 272.2999 14.34217676406007
IRIDIUM 154             
1 43574U 18061F   26116.95174163  .00000086  00000+0  23584-4 0  9990
2 43574  86.3940  78.2259 0002320  82.9103 277.2356 14.34217756406066
IRIDIUM 163             
1 43575U 18061G   26116.93271327  .00000225  00000+0  73195-4 0  9997
2 43575  86.3938  78.1507 0002241  89.3317 270.8136 14.34218795406035
IRIDIUM 156             
1 43576U 18061H   26116.83757560  .00000044  00000+0  85303-5 0  9999
2 43576  86.3938  78.1978 0002425  86.9623 273.1851 14.34217623406012
IRIDIUM 164             
1 43577U 18061J   26116.95808403  .00000231  00000+0  75585-4 0  9994
2 43577  86.3939  78.1868 0002250  81.5743 278.5708 14.34217012406070
IRIDIUM 159             
1 43578U 18061K   26116.85660238 -.00000017  00000+0 -13257-4 0  9998
2 43578  86.3939  78.1675 0002050  87.3144 272.8286 14.34217600406020
IRIDIUM 180             
1 43922U 19002A   26116.78632936  .00000161  00000+0  50456-4 0  9993
2 43922  86.4015  15.0780 0002080  85.6131 274.5303 14.34218295381624
IRIDIUM 176             
1 43923U 19002B   26116.77539355  .00000859  00000+0  13229-3 0  9994
2 43923  86.6134  15.0335 0002485  82.1652 277.9848 14.72259117391682
IRIDIUM 168             
1 43924U 19002C   26116.77999975  .00000260  00000+0  85660-4 0  9998
2 43924  86.4017  15.1565 0002153  84.5356 275.6085 14.34220407381603
